{
  "type": "FeatureCollection",
  "features": [
    {
      "type": "Feature",
      "properties": {
        "norad_id": 59626,
        "name": "LEGION 2",
        "group": "resource",
        "lat": -33.286970597574964,
        "lon": 69.33967808543629,
        "alt_km": 519.8282215776744,
        "timestamp": "2025-12-15T15:53:19.536215+00:00",
        "meta_object_name": "LEGION 2",
        "meta_object_id": "2024-081B",
        "meta_epoch": "2025-12-14T22:37:02.228160",
        "meta_mean_motion": 15.16518311,
        "meta_eccentricity": 0.00056177,
        "meta_inclination": 97.5219,
        "meta_ra_of_asc_node": 63.6493,
        "meta_arg_of_pericenter": 284.326,
        "meta_mean_anomaly": 75.7349,
        "meta_ephemeris_type": 0,
        "meta_classification_type": "U",
        "meta_norad_cat_id": 59626,
        "meta_element_set_no": 999,
        "meta_rev_at_epoch": 8961,
        "meta_bstar": 0.00020419283,
        "meta_mean_motion_dot": 3.913e-05,
        "meta_mean_motion_ddot": 0,
        "tle_line1": "1 59626U 24081B   25348.94238690  .00003913  00000+0  20419-3 0  9990",
        "tle_line2": "2 59626  97.5219  63.6493 0005617 284.3260  75.7349 15.16518311 89619"
      },
      "geometry": {
        "type": "Point",
        "coordinates": [
          69.33967808543629,
          -33.286970597574964
        ]
      }
    },
    {
      "type": "Feature",
      "properties": {
        "norad_id": 60182,
        "name": "ALOS-4 (DAICHI-4)",
        "group": "resource",
        "lat": -44.97521003141395,
        "lon": 92.46553591256469,
        "alt_km": 638.5538342585251,
        "timestamp": "2025-12-15T15:53:19.536224+00:00",
        "meta_object_name": "ALOS-4 (DAICHI-4)",
        "meta_object_id": "2024-123A",
        "meta_epoch": "2025-12-15T11:13:28.758144",
        "meta_mean_motion": 14.79472725,
        "meta_eccentricity": 0.0001427,
        "meta_inclination": 97.9227,
        "meta_ra_of_asc_node": 84.276,
        "meta_arg_of_pericenter": 100.6181,
        "meta_mean_anomaly": 259.5191,
        "meta_ephemeris_type": 0,
        "meta_classification_type": "U",
        "meta_norad_cat_id": 60182,
        "meta_element_set_no": 999,
        "meta_rev_at_epoch": 7871,
        "meta_bstar": 0.00019218,
        "meta_mean_motion_dot": 1.384e-05,
        "meta_mean_motion_ddot": 0,
        "tle_line1": "1 60182U 24123A   25349.46769396  .00001384  00000+0  19218-3 0  9991",
        "tle_line2": "2 60182  97.9227  84.2760 0001427 100.6181 259.5191 14.79472725 78716"
      },
      "geometry": {
        "type": "Point",
        "coordinates": [
          92.46553591256469,
          -44.97521003141395
        ]
      }
    },
    {
      "type": "Feature",
      "properties": {
        "norad_id": 60452,
        "name": "LEGION 3",
        "group": "resource",
        "lat": 23.137711289403484,
        "lon": -40.22140611398881,
        "alt_km": 525.5501449389267,
        "timestamp": "2025-12-15T15:53:19.536235+00:00",
        "meta_object_name": "LEGION 3",
        "meta_object_id": "2024-146A",
        "meta_epoch": "2025-12-14T22:20:29.604480",
        "meta_mean_motion": 15.15787804,
        "meta_eccentricity": 0.00151061,
        "meta_inclination": 45.0018,
        "meta_ra_of_asc_node": 298.3858,
        "meta_arg_of_pericenter": 210.5285,
        "meta_mean_anomaly": 149.4716,
        "meta_ephemeris_type": 0,
        "meta_classification_type": "U",
        "meta_norad_cat_id": 60452,
        "meta_element_set_no": 999,
        "meta_rev_at_epoch": 7406,
        "meta_bstar": 0.00024055094,
        "meta_mean_motion_dot": 4.419e-05,
        "meta_mean_motion_ddot": 0,
        "tle_line1": "1 60452U 24146A   25348.93089820  .00004419  00000+0  24055-3 0  9991",
        "tle_line2": "2 60452  45.0018 298.3858 0015106 210.5285 149.4716 15.15787804 74061"
      },
      "geometry": {
        "type": "Point",
        "coordinates": [
          -40.22140611398881,
          23.137711289403484
        ]
      }
    },
    {
      "type": "Feature",
      "properties": {
        "norad_id": 60453,
        "name": "LEGION 4",
        "group": "resource",
        "lat": 21.560545056002667,
        "lon": 49.48010689337314,
        "alt_km": 512.455562611105,
        "timestamp": "2025-12-15T15:53:19.536244+00:00",
        "meta_object_name": "LEGION 4",
        "meta_object_id": "2024-146B",
        "meta_epoch": "2025-12-14T14:26:43.785888",
        "meta_mean_motion": 15.15849123,
        "meta_eccentricity": 0.00093135,
        "meta_inclination": 45.0398,
        "meta_ra_of_asc_node": 31.906,
        "meta_arg_of_pericenter": 320.5343,
        "meta_mean_anomaly": 39.4857,
        "meta_ephemeris_type": 0,
        "meta_classification_type": "U",
        "meta_norad_cat_id": 60453,
        "meta_element_set_no": 999,
        "meta_rev_at_epoch": 7286,
        "meta_bstar": 0.00028823024,
        "meta_mean_motion_dot": 5.35e-05,
        "meta_mean_motion_ddot": 0,
        "tle_line1": "1 60453U 24146B   25348.60189567  .00005350  00000+0  28823-3 0  9997",
        "tle_line2": "2 60453  45.0398  31.9060 0009313 320.5343  39.4857 15.15849123 72862"
      },
      "geometry": {
        "type": "Point",
        "coordinates": [
          49.48010689337314,
          21.560545056002667
        ]
      }
    },
    {
      "type": "Feature",
      "properties": {
        "norad_id": 60989,
        "name": "SENTINEL-2C",
        "group": "resource",
        "lat": -70.60773667914307,
        "lon": 87.46249826960704,
        "alt_km": 797.1170711065943,
        "timestamp": "2025-12-15T15:53:19.536253+00:00",
        "meta_object_name": "SENTINEL-2C",
        "meta_object_id": "2024-157A",
        "meta_epoch": "2025-12-14T20:05:15.046080",
        "meta_mean_motion": 14.30818308,
        "meta_eccentricity": 0.00012259,
        "meta_inclination": 98.5682,
        "meta_ra_of_asc_node": 61.2894,
        "meta_arg_of_pericenter": 97.2727,
        "meta_mean_anomaly": 262.8596,
        "meta_ephemeris_type": 0,
        "meta_classification_type": "U",
        "meta_norad_cat_id": 60989,
        "meta_element_set_no": 999,
        "meta_rev_at_epoch": 6662,
        "meta_bstar": 7.1482627e-05,
        "meta_mean_motion_dot": 1.44e-06,
        "meta_mean_motion_ddot": 0,
        "tle_line1": "1 60989U 24157A   25348.83697970  .00000144  00000+0  71483-4 0  9997",
        "tle_line2": "2 60989  98.5682  61.2894 0001225  97.2727 262.8596 14.30818308 66620"
      },
      "geometry": {
        "type": "Point",
        "coordinates": [
          87.46249826960704,
          -70.60773667914307
        ]
      }
    },
    {
      "type": "Feature",
      "properties": {
        "norad_id": 61735,
        "name": "IONOSFERA-M 1",
        "group": "resource",
        "lat": 69.31370500661558,
        "lon": 63.53034404772676,
        "alt_km": 809.4499037026835,
        "timestamp": "2025-12-15T15:53:19.536262+00:00",
        "meta_object_name": "IONOSFERA-M 1",
        "meta_object_id": "2024-199A",
        "meta_epoch": "2025-12-14T22:30:02.305152",
        "meta_mean_motion": 14.22714452,
        "meta_eccentricity": 8.594e-05,
        "meta_inclination": 98.7403,
        "meta_ra_of_asc_node": 218.7689,
        "meta_arg_of_pericenter": 19.0603,
        "meta_mean_anomaly": 341.0607,
        "meta_ephemeris_type": 0,
        "meta_classification_type": "U",
        "meta_norad_cat_id": 61735,
        "meta_element_set_no": 999,
        "meta_rev_at_epoch": 10150,
        "meta_bstar": 4.8127105e-05,
        "meta_mean_motion_dot": 6.4e-07,
        "meta_mean_motion_ddot": 0,
        "tle_line1": "1 61735U 24199A   25348.93752668  .00000064  00000+0  48127-4 0  9990",
        "tle_line2": "2 61735  98.7403 218.7689 0000859  19.0603 341.0607 14.22714452101507"
      },
      "geometry": {
        "type": "Point",
        "coordinates": [
          63.53034404772676,
          69.31370500661558
        ]
      }
    },
    {
      "type": "Feature",
      "properties": {
        "norad_id": 61736,
        "name": "IONOSFERA-M 2",
        "group": "resource",
        "lat": -66.94689418335741,
        "lon": -119.4086551427613,
        "alt_km": 824.608777346968,
        "timestamp": "2025-12-15T15:53:19.536271+00:00",
        "meta_object_name": "IONOSFERA-M 2",
        "meta_object_id": "2024-199B",
        "meta_epoch": "2025-12-14T23:19:55.471584",
        "meta_mean_motion": 14.22716699,
        "meta_eccentricity": 0.00016943,
        "meta_inclination": 98.7401,
        "meta_ra_of_asc_node": 218.7158,
        "meta_arg_of_pericenter": 107.7285,
        "meta_mean_anomaly": 252.4078,
        "meta_ephemeris_type": 0,
        "meta_classification_type": "U",
        "meta_norad_cat_id": 61736,
        "meta_element_set_no": 999,
        "meta_rev_at_epoch": 10463,
        "meta_bstar": 5.1617469e-05,
        "meta_mean_motion_dot": 7.1e-07,
        "meta_mean_motion_ddot": 0,
        "tle_line1": "1 61736U 24199B   25348.97216981  .00000071  00000+0  51617-4 0  9994",
        "tle_line2": "2 61736  98.7401 218.7158 0001694 107.7285 252.4078 14.22716699104635"
      },
      "geometry": {
        "type": "Point",
        "coordinates": [
          -119.4086551427613,
          -66.94689418335741
        ]
      }
    }
  ]
}